{"type": "FeatureCollection", "features": [ {"type": "Feature", "properties": {"norad_id": 32260, "name": "GPS BIIRM-4 (PRN 15)", "group": "gnss", "lat": -14.234627946191106, "lon": 77.30928642382679, "alt_km": 20274.242667060476, "timestamp": "2025-12-08T05:48:09.277393+00:00", "meta": {"OBJECT_NAME": "GPS BIIRM-4 (PRN 15)", "OBJECT_ID": "2007-047A", "EPOCH": "2025-12-07T06:27:37.313568", "MEAN_MOTION": 2.00564639, "ECCENTRICITY": 0.01643207, "INCLINATION": 53.9516, "RA_OF_ASC_NODE": 87.9845, "ARG_OF_PERICENTER": 85.1852, "MEAN_ANOMALY": 276.674, "EPHEMERIS_TYPE": 0, "CLASSIFICATION_TYPE": "U", "NORAD_CAT_ID": 32260, "ELEMENT_SET_NO": 999, "REV_AT_EPOCH": 13296, "BSTAR": 0, "MEAN_MOTION_DOT": -2e-07, "MEAN_MOTION_DDOT": 0}, "tle": {"line1": "1 32260U 07047A   25341.26918187 -.00000020  00000+0  00000+0 0  9999", "line2": "2 32260  53.9516  87.9845 0164320  85.1852 276.6740  2.00564639132968"}}, "geometry": {"type": "Point", "coordinates": [77.30928642382679, -14.234627946191106]}}, {"type": "Feature", "properties": {"norad_id": 32275, "name": "COSMOS 2433 (720)", "group": "gnss", "lat": -52.87288625662369, "lon": 179.0096571588184, "alt_km": 19122.135033951938, "timestamp": "2025-12-08T05:48:09.277405+00:00", "meta": {"OBJECT_NAME": "COSMOS 2433 (720)", "OBJECT_ID": "2007-052A", "EPOCH": "2025-12-06T23:44:11.537952", "MEAN_MOTION": 2.13103921, "ECCENTRICITY": 0.00054556, "INCLINATION": 65.6864, "RA_OF_ASC_NODE": 322.3989, "ARG_OF_PERICENTER": 253.5069, "MEAN_ANOMALY": 106.429, "EPHEMERIS_TYPE": 0, "CLASSIFICATION_TYPE": "U", "NORAD_CAT_ID": 32275, "ELEMENT_SET_NO": 999, "REV_AT_EPOCH": 14096, "BSTAR": 0, "MEAN_MOTION_DOT": -5e-07, "MEAN_MOTION_DDOT": 0}, "tle": {"line1": "1 32275U 07052A   25340.98902243 -.00000050  00000+0  00000+0 0  9998", "line2": "2 32275  65.6864 322.3989 0005455 253.5069 106.4290  2.13103921140965"}}, "geometry": {"type": "Point", "coordinates": [179.0096571588184, -52.87288625662369]}}, {"type": "Feature", "properties": {"norad_id": 32276, "name": "COSMOS 2432 (719)", "group": "gnss", "lat": -4.9625098536952175, "lon": 144.71709900455392, "alt_km": 19148.19646395926, "timestamp": "2025-12-08T05:48:09.277417+00:00", "meta": {"OBJECT_NAME": "COSMOS 2432 (719)", "OBJECT_ID": "2007-052B", "EPOCH": "2025-12-07T02:45:37.162080", "MEAN_MOTION": 2.13103072, "ECCENTRICITY": 0.00112789, "INCLINATION": 65.7022, "RA_OF_ASC_NODE": 322.5187, "ARG_OF_PERICENTER": 312.1761, "MEAN_ANOMALY": 88.8989, "EPHEMERIS_TYPE": 0, "CLASSIFICATION_TYPE": "U", "NORAD_CAT_ID": 32276, "ELEMENT_SET_NO": 999, "REV_AT_EPOCH": 14099, "BSTAR": 0, "MEAN_MOTION_DOT": -5e-07, "MEAN_MOTION_DDOT": 0}, "tle": {"line1": "1 32276U 07052B   25341.11501345 -.00000050  00000+0  00000+0 0  9993", "line2": "2 32276  65.7022 322.5187 0011278 312.1761  88.8989  2.13103072140994"}}, "geometry": {"type": "Point", "coordinates": [144.71709900455392, -4.9625098536952175]}}, {"type": "Feature", "properties": {"norad_id": 32384, "name": "GPS BIIRM-5 (PRN 29)", "group": "gnss", "lat": 49.15043966141612, "lon": 48.32793873513743, "alt_km": 20119.641639219615, "timestamp": "2025-12-08T05:48:09.277428+00:00", "meta": {"OBJECT_NAME": "GPS BIIRM-5 (PRN 29)", "OBJECT_ID": "2007-062A", "EPOCH": "2025-12-07T07:51:30.252672", "MEAN_MOTION": 2.00576914, "ECCENTRICITY": 0.00322165, "INCLINATION": 55.187, "RA_OF_ASC_NODE": 281.863, "ARG_OF_PERICENTER": 162.6337, "MEAN_ANOMALY": 10.2823, "EPHEMERIS_TYPE": 0, "CLASSIFICATION_TYPE": "U", "NORAD_CAT_ID": 32384, "ELEMENT_SET_NO": 999, "REV_AT_EPOCH": 13166, "BSTAR": 0, "MEAN_MOTION_DOT": -4e-07, "MEAN_MOTION_DDOT": 0}, "tle": {"line1": "1 32384U 07062A   25341.32743348 -.00000040  00000+0  00000+0 0  9997", "line2": "2 32384  55.1870 281.8630 0032216 162.6337  10.2823  2.00576914131665"}}, "geometry": {"type": "Point", "coordinates": [48.32793873513743, 49.15043966141612]}}, {"type": "Feature", "properties": {"norad_id": 32393, "name": "COSMOS 2434 (721)", "group": "gnss", "lat": 42.30325004943476, "lon": -7.617329080566725, "alt_km": 19119.460199489964, "timestamp": "2025-12-08T05:48:09.277441+00:00", "meta": {"OBJECT_NAME": "COSMOS 2434 (721)", "OBJECT_ID": "2007-065A", "EPOCH": "2025-12-07T08:44:57.197760", "MEAN_MOTION": 2.13101207, "ECCENTRICITY": 0.00044814, "INCLINATION": 64.3148, "RA_OF_ASC_NODE": 198.3849, "ARG_OF_PERICENTER": 71.0403, "MEAN_ANOMALY": 107.6412, "EPHEMERIS_TYPE": 0, "CLASSIFICATION_TYPE": "U", "NORAD_CAT_ID": 32393, "ELEMENT_SET_NO": 999, "REV_AT_EPOCH": 13968, "BSTAR": 0, "MEAN_MOTION_DOT": 6e-07, "MEAN_MOTION_DDOT": 0}, "tle": {"line1": "1 32393U 07065A   25341.36455090  .00000060  00000+0  00000+0 0  9999", "line2": "2 32393  64.3148 198.3849 0004481  71.0403 107.6412  2.13101207139687"}}, "geometry": {"type": "Point", "coordinates": [-7.617329080566725, 42.30325004943476]}}, {"type": "Feature", "properties": {"norad_id": 32395, "name": "COSMOS 2436 (723)", "group": "gnss", "lat": -63.76624095879491, "lon": 95.93124752944304, "alt_km": 19148.031974553407, "timestamp": "2025-12-08T05:48:09.277452+00:00", "meta": {"OBJECT_NAME": "COSMOS 2436 (723)", "OBJECT_ID": "2007-065C", "EPOCH": "2025-12-07T03:33:41.330592", "MEAN_MOTION": 2.13100006, "ECCENTRICITY": 0.00177394, "INCLINATION": 64.3236, "RA_OF_ASC_NODE": 198.4623, "ARG_OF_PERICENTER": 9.1382, "MEAN_ANOMALY": 136.8175, "EPHEMERIS_TYPE": 0, "CLASSIFICATION_TYPE": "U", "NORAD_CAT_ID": 32395, "ELEMENT_SET_NO": 999, "REV_AT_EPOCH": 13963, "BSTAR": 0, "MEAN_MOTION_DOT": 6.2e-07, "MEAN_MOTION_DDOT": 0}, "tle": {"line1": "1 32395U 07065C   25341.14839503  .00000062  00000+0  00000+0 0  9994", "line2": "2 32395  64.3236 198.4623 0017739   9.1382 136.8175  2.13100006139637"}}, "geometry": {"type": "Point", "coordinates": [95.93124752944304, -63.76624095879491]}}, {"type": "Feature", "properties": {"norad_id": 32711, "name": "GPS BIIRM-6 (PRN 07)", "group": "gnss", "lat": 30.600886168175972, "lon": -177.4514758030179, "alt_km": 20658.178172656502, "timestamp": "2025-12-08T05:48:09.277464+00:00", "meta": {"OBJECT_NAME": "GPS BIIRM-6 (PRN 07)", "OBJECT_ID": "2008-012A", "EPOCH": "2025-12-07T16:30:50.099904", "MEAN_MOTION": 2.00565328, "ECCENTRICITY": 0.02022386, "INCLINATION": 54.4764, "RA_OF_ASC_NODE": 157.5746, "ARG_OF_PERICENTER": 244.892, "MEAN_ANOMALY": 113.0048, "EPHEMERIS_TYPE": 0, "CLASSIFICATION_TYPE": "U", "NORAD_CAT_ID": 32711, "ELEMENT_SET_NO": 999, "REV_AT_EPOCH": 12991, "BSTAR": 0, "MEAN_MOTION_DOT": 5.7e-07, "MEAN_MOTION_DDOT": 0}, "tle": {"line1": "1 32711U 08012A   25341.68807986  .00000057  00000+0  00000+0 0  9992", "line2": "2 32711  54.4764 157.5746 0202238 244.8920 113.0048  2.00565328129917"}}, "geometry": {"type": "Point", "coordinates": [-177.4514758030179, 30.600886168175972]}}, {"type": "Feature", "properties": {"norad_id": 35752, "name": "GPS BIIRM-8 (PRN 05)", "group": "gnss", "lat": 44.37797784635973, "lon": 76.10719047185698, "alt_km": 20050.885208411022, "timestamp": "2025-12-08T05:48:09.277476+00:00", "meta": {"OBJECT_NAME": "GPS BIIRM-8 (PRN 05)", "OBJECT_ID": "2009-043A", "EPOCH": "2025-12-07T22:53:42.029952", "MEAN_MOTION": 2.00565864, "ECCENTRICITY": 0.0051934, "INCLINATION": 56.0877, "RA_OF_ASC_NODE": 34.9719, "ARG_OF_PERICENTER": 81.9866, "MEAN_ANOMALY": 127.9119, "EPHEMERIS_TYPE": 0, "CLASSIFICATION_TYPE": "U", "NORAD_CAT_ID": 35752, "ELEMENT_SET_NO": 999, "REV_AT_EPOCH": 11952, "BSTAR": 0, "MEAN_MOTION_DOT": -7.9e-07, "MEAN_MOTION_DDOT": 0}, "tle": {"line1": "1 35752U 09043A   25341.95395868 -.00000079  00000+0  00000+0 0  9991", "line2": "2 35752  56.0877  34.9719 0051934  81.9866 127.9119  2.00565864119524"}}, "geometry": {"type": "Point", "coordinates": [76.10719047185698, 44.37797784635973]}}, {"type": "Feature", "properties": {"norad_id": 36111, "name": "COSMOS 2456 (730)", "group": "gnss", "lat": -59.07831995203421, "lon": 26.114963829290915, "alt_km": 19128.45487081134, "timestamp": "2025-12-08T05:48:09.277487+00:00", "meta": {"OBJECT_NAME": "COSMOS 2456 (730)", "OBJECT_ID": "2009-070A", "EPOCH": "2025-12-07T20:44:40.162272", "MEAN_MOTION": 2.13103432, "ECCENTRICITY": 0.00030434, "INCLINATION": 64.8974, "RA_OF_ASC_NODE": 77.5047, "ARG_OF_PERICENTER": 297.6461, "MEAN_ANOMALY": 61.5166, "EPHEMERIS_TYPE": 0, "CLASSIFICATION_TYPE": "U", "NORAD_CAT_ID": 36111, "ELEMENT_SET_NO": 999, "REV_AT_EPOCH": 12434, "BSTAR": 0, "MEAN_MOTION_DOT": -1.5e-07, "MEAN_MOTION_DDOT": 0}, "tle": {"line1": "1 36111U 09070A   25341.86435373 -.00000015  00000+0  00000+0 0  9997", "line2": "2 36111  64.8974  77.5047 0003043 297.6461  61.5166  2.13103432124345"}}, "geometry": {"type": "Point", "coordinates": [26.114963829290915, -59.07831995203421]}}, {"type": "Feature", "properties": {"norad_id": 36112, "name": "COSMOS 2457 (733)", "group": "gnss", "lat": 50.05151049524338, "lon": 111.3447803797564, "alt_km": 19126.44288167658, "timestamp": "2025-12-08T05:48:09.277499+00:00", "meta": {"OBJECT_NAME": "COSMOS 2457 (733)", "OBJECT_ID": "2009-070B", "EPOCH": "2025-12-07T05:33:13.940640", "MEAN_MOTION": 2.13100799, "ECCENTRICITY": 0.00047672, "INCLINATION": 64.8824, "RA_OF_ASC_NODE": 77.374, "ARG_OF_PERICENTER": 157.9691, "MEAN_ANOMALY": 204.8145, "EPHEMERIS_TYPE": 0, "CLASSIFICATION_TYPE": "U", "NORAD_CAT_ID": 36112, "ELEMENT_SET_NO": 999, "REV_AT_EPOCH": 12434, "BSTAR": 0, "MEAN_MOTION_DOT": -1.6e-07, "MEAN_MOTION_DDOT": 0}, "tle": {"line1": "1 36112U 09070B   25341.23141135 -.00000016  00000+0  00000+0 0  9990", "line2": "2 36112  64.8824  77.3740 0004767 157.9691 204.8145  2.13100799124347"}}, "geometry": {"type": "Point", "coordinates": [111.3447803797564, 50.05151049524338]}}]}